STARLINK-35893          
1 66565U 25268J   25360.25003472 -.02050774  00000+0 -45835-1 0  9992
2 66565  43.0003  41.9395 0001378 285.1670 183.0707 15.46195270  5909
STARLINK-35871          
1 66566U 25268K   25360.25003472 -.02048271  00000+0 -44936-1 0  9993
2 66566  43.0009  41.9240 0001356 284.8402 189.5451 15.46724040  5966
STARLINK-35825          
1 66567U 25268L   25358.23325008  .00130148  00000+0  17686-2 0  9995
2 66567  43.0005  53.7242 0003386 293.6521  66.3986 15.56426808  6419
STARLINK-35803          
1 66568U 25268M   25360.25003472 -.01750505  00000+0 -35980-1 0  9993
2 66568  43.0002  41.9483 0001352 281.6557 182.4560 15.48595361  6061
STARLINK-35835          
1 66569U 25268N   25360.25003472 -.02071104  00000+0 -42283-1 0  9990
2 66569  43.0001  41.8745 0001150 279.2989 215.2761 15.48808019  6064
STARLINK-35834          
1 66570U 25268P   25360.25003472 -.02046558  00000+0 -67217-1 0  9991
2 66570  43.0012  42.2987 0001274 257.4002  63.2908 15.34102426  6060
STARLINK-35836          
1 66571U 25268Q   25360.25003472 -.01940463  00000+0 -62866-1 0  9994
2 66571  42.9998  42.2589 0001028 254.9870  82.2848 15.34912757  6017
STARLINK-35870          
1 66572U 25268R   25360.25003472 -.02025041  00000+0 -62847-1 0  9991
2 66572  43.0001  42.1962 0001402 258.6969 104.5631 15.36397762  6063
STARLINK-35650          
1 66573U 25268S   25360.25003472 -.02012829  00000+0 -60742-1 0  9994
2 66573  43.0012  42.1587 0001447 258.8336 119.4691 15.37232411  6069
STARLINK-35812          
1 66574U 25268T   25360.25003472 -.02118726  00000+0 -61359-1 0  9993
2 66574  43.0004  42.1226 0001365 269.2600 123.5274 15.38092493  6068
STARLINK-35810          
1 66575U 25268U   25360.25003472 -.02074677  00000+0 -59431-1 0  9998
2 66575  43.0007  42.0881 0001456 270.1639 136.5433 15.38930197  6065
STARLINK-35814          
1 66576U 25268V   25360.25003472 -.02053341  00000+0 -57148-1 0  9997
2 66576  43.0008  42.0560 0001441 275.0591 145.0114 15.39758253  6069
