CCSDS_OMM_VERS = 2.0
CREATION_DATE  = 
ORIGINATOR     = 

OBJECT_NAME    = STARLINK-35893
OBJECT_ID      = 2025-268J
CENTER_NAME    = EARTH
REF_FRAME      = TEME
TIME_SYSTEM    = UTC
MEAN_ELEMENT_THEORY = SGP/SGP4

EPOCH          = 2025-12-26T06:00:02.999808
MEAN_MOTION    = 15.46195270
ECCENTRICITY   = .0001378
INCLINATION    = 43.0003
RA_OF_ASC_NODE = 41.9395
ARG_OF_PERICENTER = 285.1670
MEAN_ANOMALY   = 183.0707

EPHEMERIS_TYPE = 0
CLASSIFICATION_TYPE = U
NORAD_CAT_ID   = 66565
ELEMENT_SET_NO = 999
REV_AT_EPOCH   = 590
BSTAR          = -.45835414E-1
MEAN_MOTION_DOT = -.2050774E-1
MEAN_MOTION_DDOT = 0

CCSDS_OMM_VERS = 2.0
CREATION_DATE  = 
ORIGINATOR     = 

OBJECT_NAME    = STARLINK-35871
OBJECT_ID      = 2025-268K
CENTER_NAME    = EARTH
REF_FRAME      = TEME
TIME_SYSTEM    = UTC
MEAN_ELEMENT_THEORY = SGP/SGP4

EPOCH          = 2025-12-26T06:00:02.999808
MEAN_MOTION    = 15.46724040
ECCENTRICITY   = .00013562
INCLINATION    = 43.0009
RA_OF_ASC_NODE = 41.9240
ARG_OF_PERICENTER = 284.8402
MEAN_ANOMALY   = 189.5451

EPHEMERIS_TYPE = 0
CLASSIFICATION_TYPE = U
NORAD_CAT_ID   = 66566
ELEMENT_SET_NO = 999
REV_AT_EPOCH   = 596
BSTAR          = -.44936175E-1
MEAN_MOTION_DOT = -.2048271E-1
MEAN_MOTION_DDOT = 0

CCSDS_OMM_VERS = 2.0
CREATION_DATE  = 
ORIGINATOR     = 

OBJECT_NAME    = STARLINK-35825
OBJECT_ID      = 2025-268L
CENTER_NAME    = EARTH
REF_FRAME      = TEME
TIME_SYSTEM    = UTC
MEAN_ELEMENT_THEORY = SGP/SGP4

EPOCH          = 2025-12-24T05:35:52.806912
MEAN_MOTION    = 15.56426808
ECCENTRICITY   = .00033868
INCLINATION    = 43.0005
RA_OF_ASC_NODE = 53.7242
ARG_OF_PERICENTER = 293.6521
MEAN_ANOMALY   = 66.3986

EPHEMERIS_TYPE = 0
CLASSIFICATION_TYPE = U
NORAD_CAT_ID   = 66567
ELEMENT_SET_NO = 999
REV_AT_EPOCH   = 641
BSTAR          = .17686293E-2
MEAN_MOTION_DOT = .130148E-2
MEAN_MOTION_DDOT = 0

CCSDS_OMM_VERS = 2.0
CREATION_DATE  = 
ORIGINATOR     = 

OBJECT_NAME    = STARLINK-35803
OBJECT_ID      = 2025-268M
CENTER_NAME    = EARTH
REF_FRAME      = TEME
TIME_SYSTEM    = UTC
MEAN_ELEMENT_THEORY = SGP/SGP4

EPOCH          = 2025-12-26T06:00:02.999808
MEAN_MOTION    = 15.48595361
ECCENTRICITY   = .00013526
INCLINATION    = 43.0002
RA_OF_ASC_NODE = 41.9483
ARG_OF_PERICENTER = 281.6557
MEAN_ANOMALY   = 182.4560

EPHEMERIS_TYPE = 0
CLASSIFICATION_TYPE = U
NORAD_CAT_ID   = 66568
ELEMENT_SET_NO = 999
REV_AT_EPOCH   = 606
BSTAR          = -.35980189E-1
MEAN_MOTION_DOT = -.1750505E-1
MEAN_MOTION_DDOT = 0

CCSDS_OMM_VERS = 2.0
CREATION_DATE  = 
ORIGINATOR     = 

OBJECT_NAME    = STARLINK-35835
OBJECT_ID      = 2025-268N
CENTER_NAME    = EARTH
REF_FRAME      = TEME
TIME_SYSTEM    = UTC
MEAN_ELEMENT_THEORY = SGP/SGP4

EPOCH          = 2025-12-26T06:00:02.999808
MEAN_MOTION    = 15.48808019
ECCENTRICITY   = .00011502
INCLINATION    = 43.0001
RA_OF_ASC_NODE = 41.8745
ARG_OF_PERICENTER = 279.2989
MEAN_ANOMALY   = 215.2761

EPHEMERIS_TYPE = 0
CLASSIFICATION_TYPE = U
NORAD_CAT_ID   = 66569
ELEMENT_SET_NO = 999
REV_AT_EPOCH   = 606
BSTAR          = -.42282579E-1
MEAN_MOTION_DOT = -.2071104E-1
MEAN_MOTION_DDOT = 0

CCSDS_OMM_VERS = 2.0
CREATION_DATE  = 
ORIGINATOR     = 

OBJECT_NAME    = STARLINK-35834
OBJECT_ID      = 2025-268P
CENTER_NAME    = EARTH
REF_FRAME      = TEME
TIME_SYSTEM    = UTC
MEAN_ELEMENT_THEORY = SGP/SGP4

EPOCH          = 2025-12-26T06:00:02.999808
MEAN_MOTION    = 15.34102426
ECCENTRICITY   = .00012745
INCLINATION    = 43.0012
RA_OF_ASC_NODE = 42.2987
ARG_OF_PERICENTER = 257.4002
MEAN_ANOMALY   = 63.2908

EPHEMERIS_TYPE = 0
CLASSIFICATION_TYPE = U
NORAD_CAT_ID   = 66570
ELEMENT_SET_NO = 999
REV_AT_EPOCH   = 606
BSTAR          = -.67216545E-1
MEAN_MOTION_DOT = -.2046558E-1
MEAN_MOTION_DDOT = 0

CCSDS_OMM_VERS = 2.0
CREATION_DATE  = 
ORIGINATOR     = 

OBJECT_NAME    = STARLINK-35836
OBJECT_ID      = 2025-268Q
CENTER_NAME    = EARTH
REF_FRAME      = TEME
TIME_SYSTEM    = UTC
MEAN_ELEMENT_THEORY = SGP/SGP4

EPOCH          = 2025-12-26T06:00:02.999808
MEAN_MOTION    = 15.34912757
ECCENTRICITY   = .00010284
INCLINATION    = 42.9998
RA_OF_ASC_NODE = 42.2589
ARG_OF_PERICENTER = 254.9870
MEAN_ANOMALY   = 82.2848

EPHEMERIS_TYPE = 0
CLASSIFICATION_TYPE = U
NORAD_CAT_ID   = 66571
ELEMENT_SET_NO = 999
REV_AT_EPOCH   = 601
BSTAR          = -.62866479E-1
MEAN_MOTION_DOT = -.1940463E-1
MEAN_MOTION_DDOT = 0

CCSDS_OMM_VERS = 2.0
CREATION_DATE  = 
ORIGINATOR     = 

OBJECT_NAME    = STARLINK-35870
OBJECT_ID      = 2025-268R
CENTER_NAME    = EARTH
REF_FRAME      = TEME
TIME_SYSTEM    = UTC
MEAN_ELEMENT_THEORY = SGP/SGP4

EPOCH          = 2025-12-26T06:00:02.999808
MEAN_MOTION    = 15.36397762
ECCENTRICITY   = .00014029
INCLINATION    = 43.0001
RA_OF_ASC_NODE = 42.1962
ARG_OF_PERICENTER = 258.6969
MEAN_ANOMALY   = 104.5631

EPHEMERIS_TYPE = 0
CLASSIFICATION_TYPE = U
NORAD_CAT_ID   = 66572
ELEMENT_SET_NO = 999
REV_AT_EPOCH   = 606
BSTAR          = -.62847087E-1
MEAN_MOTION_DOT = -.2025041E-1
MEAN_MOTION_DDOT = 0

CCSDS_OMM_VERS = 2.0
CREATION_DATE  = 
ORIGINATOR     = 

OBJECT_NAME    = STARLINK-35650
OBJECT_ID      = 2025-268S
CENTER_NAME    = EARTH
REF_FRAME      = TEME
TIME_SYSTEM    = UTC
MEAN_ELEMENT_THEORY = SGP/SGP4

EPOCH          = 2025-12-26T06:00:02.999808
MEAN_MOTION    = 15.37232411
ECCENTRICITY   = .00014473
INCLINATION    = 43.0012
RA_OF_ASC_NODE = 42.1587
ARG_OF_PERICENTER = 258.8336
MEAN_ANOMALY   = 119.4691

EPHEMERIS_TYPE = 0
CLASSIFICATION_TYPE = U
NORAD_CAT_ID   = 66573
ELEMENT_SET_NO = 999
REV_AT_EPOCH   = 606
BSTAR          = -.60741509E-1
MEAN_MOTION_DOT = -.2012829E-1
MEAN_MOTION_DDOT = 0

CCSDS_OMM_VERS = 2.0
CREATION_DATE  = 
ORIGINATOR     = 

OBJECT_NAME    = STARLINK-35812
OBJECT_ID      = 2025-268T
CENTER_NAME    = EARTH
REF_FRAME      = TEME
TIME_SYSTEM    = UTC
MEAN_ELEMENT_THEORY = SGP/SGP4

EPOCH          = 2025-12-26T06:00:02.999808
MEAN_MOTION    = 15.38092493
ECCENTRICITY   = .00013654
INCLINATION    = 43.0004
RA_OF_ASC_NODE = 42.1226
ARG_OF_PERICENTER = 269.2600
MEAN_ANOMALY   = 123.5274

EPHEMERIS_TYPE = 0
CLASSIFICATION_TYPE = U
NORAD_CAT_ID   = 66574
ELEMENT_SET_NO = 999
REV_AT_EPOCH   = 606
BSTAR          = -.61358908E-1
MEAN_MOTION_DOT = -.2118726E-1
MEAN_MOTION_DDOT = 0

CCSDS_OMM_VERS = 2.0
CREATION_DATE  = 
ORIGINATOR     = 

OBJECT_NAME    = STARLINK-35810
OBJECT_ID      = 2025-268U
CENTER_NAME    = EARTH
REF_FRAME      = TEME
TIME_SYSTEM    = UTC
MEAN_ELEMENT_THEORY = SGP/SGP4

EPOCH          = 2025-12-26T06:00:02.999808
MEAN_MOTION    = 15.38930197
ECCENTRICITY   = .00014564
INCLINATION    = 43.0007
RA_OF_ASC_NODE = 42.0881
ARG_OF_PERICENTER = 270.1639
MEAN_ANOMALY   = 136.5433

EPHEMERIS_TYPE = 0
CLASSIFICATION_TYPE = U
NORAD_CAT_ID   = 66575
ELEMENT_SET_NO = 999
REV_AT_EPOCH   = 606
BSTAR          = -.59430802E-1
MEAN_MOTION_DOT = -.2074677E-1
MEAN_MOTION_DDOT = 0

CCSDS_OMM_VERS = 2.0
CREATION_DATE  = 
ORIGINATOR     = 

OBJECT_NAME    = STARLINK-35814
OBJECT_ID      = 2025-268V
CENTER_NAME    = EARTH
REF_FRAME      = TEME
TIME_SYSTEM    = UTC
MEAN_ELEMENT_THEORY = SGP/SGP4

EPOCH          = 2025-12-26T06:00:02.999808
MEAN_MOTION    = 15.39758253
ECCENTRICITY   = .00014412
INCLINATION    = 43.0008
RA_OF_ASC_NODE = 42.0560
ARG_OF_PERICENTER = 275.0591
MEAN_ANOMALY   = 145.0114

EPHEMERIS_TYPE = 0
CLASSIFICATION_TYPE = U
NORAD_CAT_ID   = 66576
ELEMENT_SET_NO = 999
REV_AT_EPOCH   = 606
BSTAR          = -.57148286E-1
MEAN_MOTION_DOT = -.2053341E-1
MEAN_MOTION_DDOT = 0

